[{
    "OBJECT_NAME": "GPS BIIR-2  (PRN 13)",
    "OBJECT_ID": "1997-035A",
    "EPOCH": "2020-08-30T05:29:19.277376",
    "MEAN_MOTION": 2.00561408,
    "ECCENTRICITY": 0.0042223,
    "INCLINATION": 55.4593,
    "RA_OF_ASC_NODE": 181.2747,
    "ARG_OF_PERICENTER": 58.3762,
    "MEAN_ANOMALY": 302.0071,
    "EPHEMERIS_TYPE": 0,
    "CLASSIFICATION_TYPE": "U",
    "NORAD_CAT_ID": 24876,
    "ELEMENT_SET_NO": 999,
    "REV_AT_EPOCH": 16929,
    "BSTAR": 0,
    "MEAN_MOTION_DOT": -4.1e-7,
    "MEAN_MOTION_DDOT": 0
},{
    "OBJECT_NAME": "GPS BIIR-3  (PRN 11)",
    "OBJECT_ID": "1999-055A",
    "EPOCH": "2020-08-30T01:47:42.739008",
    "MEAN_MOTION": 2.00557848,
    "ECCENTRICITY": 0.015777,
    "INCLINATION": 52.3363,
    "RA_OF_ASC_NODE": 26.8379,
    "ARG_OF_PERICENTER": 116.8362,
    "MEAN_ANOMALY": 72.4507,
    "EPHEMERIS_TYPE": 0,
    "CLASSIFICATION_TYPE": "U",
    "NORAD_CAT_ID": 25933,
    "ELEMENT_SET_NO": 999,
    "REV_AT_EPOCH": 15310,
    "BSTAR": 0,
    "MEAN_MOTION_DOT": -9.6e-7,
    "MEAN_MOTION_DDOT": 0
},{
    "OBJECT_NAME": "GPS BIIR-4  (PRN 20)",
    "OBJECT_ID": "2000-025A",
    "EPOCH": "2020-08-29T18:31:22.815840",
    "MEAN_MOTION": 2.00564674,
    "ECCENTRICITY": 0.0054417,
    "INCLINATION": 53.5726,
    "RA_OF_ASC_NODE": 106.1189,
    "ARG_OF_PERICENTER": 156.6888,
    "MEAN_ANOMALY": 213.0123,
    "EPHEMERIS_TYPE": 0,
    "CLASSIFICATION_TYPE": "U",
    "NORAD_CAT_ID": 26360,
    "ELEMENT_SET_NO": 999,
    "REV_AT_EPOCH": 14879,
    "BSTAR": 0,
    "MEAN_MOTION_DOT": -2.7e-7,
    "MEAN_MOTION_DDOT": 0
},{
    "OBJECT_NAME": "GPS BIIR-5  (PRN 28)",
    "OBJECT_ID": "2000-040A",
    "EPOCH": "2020-08-30T01:16:03.805248",
    "MEAN_MOTION": 2.00564787,
    "ECCENTRICITY": 0.0186653,
    "INCLINATION": 55.9396,
    "RA_OF_ASC_NODE": 299.2681,
    "ARG_OF_PERICENTER": 279.7576,
    "MEAN_ANOMALY": 254.7777,
    "EPHEMERIS_TYPE": 0,
    "CLASSIFICATION_TYPE": "U",
    "NORAD_CAT_ID": 26407,
    "ELEMENT_SET_NO": 999,
    "REV_AT_EPOCH": 14747,
    "BSTAR": 0,
    "MEAN_MOTION_DOT": -1.7e-7,
    "MEAN_MOTION_DDOT": 0
},{
    "OBJECT_NAME": "GPS BIIR-8  (PRN 16)",
    "OBJECT_ID": "2003-005A",
    "EPOCH": "2020-08-28T22:52:42.967776",
    "MEAN_MOTION": 2.005768,
    "ECCENTRICITY": 0.0113759,
    "INCLINATION": 55.9954,
    "RA_OF_ASC_NODE": 299.101,
    "ARG_OF_PERICENTER": 35.0912,
    "MEAN_ANOMALY": 186.6529,
    "EPHEMERIS_TYPE": 0,
    "CLASSIFICATION_TYPE": "U",
    "NORAD_CAT_ID": 27663,
    "ELEMENT_SET_NO": 999,
    "REV_AT_EPOCH": 12881,
    "BSTAR": 0,
    "MEAN_MOTION_DOT": -1.9e-7,
    "MEAN_MOTION_DDOT": 0
},{
    "OBJECT_NAME": "GPS BIIR-9  (PRN 21)",
    "OBJECT_ID": "2003-010A",
    "EPOCH": "2020-08-29T18:57:55.751040",
    "MEAN_MOTION": 2.00402436,
    "ECCENTRICITY": 0.0239697,
    "INCLINATION": 54.6771,
    "RA_OF_ASC_NODE": 50.0056,
    "ARG_OF_PERICENTER": 285.5464,
    "MEAN_ANOMALY": 87.0459,
    "EPHEMERIS_TYPE": 0,
    "CLASSIFICATION_TYPE": "U",
    "NORAD_CAT_ID": 27704,
    "ELEMENT_SET_NO": 999,
    "REV_AT_EPOCH": 12763,
    "BSTAR": 0,
    "MEAN_MOTION_DOT": -5.6e-7,
    "MEAN_MOTION_DDOT": 0
},{
    "OBJECT_NAME": "GPS BIIR-10 (PRN 22)",
    "OBJECT_ID": "2003-058A",
    "EPOCH": "2020-08-29T22:09:59.482368",
    "MEAN_MOTION": 2.0055435,
    "ECCENTRICITY": 0.0070008,
    "INCLINATION": 53.3825,
    "RA_OF_ASC_NODE": 108.8138,
    "ARG_OF_PERICENTER": 296.2518,
    "MEAN_ANOMALY": 63.1122,
    "EPHEMERIS_TYPE": 0,
    "CLASSIFICATION_TYPE": "U",
    "NORAD_CAT_ID": 28129,
    "ELEMENT_SET_NO": 999,
    "REV_AT_EPOCH": 12232,
    "BSTAR": 0,
    "MEAN_MOTION_DOT": -2.8e-7,
    "MEAN_MOTION_DDOT": 0
},{
    "OBJECT_NAME": "GPS BIIR-11 (PRN 19)",
    "OBJECT_ID": "2004-009A",
    "EPOCH": "2020-08-30T03:55:26.431968",
    "MEAN_MOTION": 2.0056126,
    "ECCENTRICITY": 0.0090914,
    "INCLINATION": 56.2634,
    "RA_OF_ASC_NODE": 359.8648,
    "ARG_OF_PERICENTER": 97.9064,
    "MEAN_ANOMALY": 74.1556,
    "EPHEMERIS_TYPE": 0,
    "CLASSIFICATION_TYPE": "U",
    "NORAD_CAT_ID": 28190,
    "ELEMENT_SET_NO": 999,
    "REV_AT_EPOCH": 12051,
    "BSTAR": 0,
    "MEAN_MOTION_DOT": -1.11e-6,
    "MEAN_MOTION_DDOT": 0
},{
    "OBJECT_NAME": "GPS BIIR-13 (PRN 02)",
    "OBJECT_ID": "2004-045A",
    "EPOCH": "2020-08-30T06:51:04.582080",
    "MEAN_MOTION": 2.00552834,
    "ECCENTRICITY": 0.0199998,
    "INCLINATION": 55.0207,
    "RA_OF_ASC_NODE": 49.887,
    "ARG_OF_PERICENTER": 267.812,
    "MEAN_ANOMALY": 268.8015,
    "EPHEMERIS_TYPE": 0,
    "CLASSIFICATION_TYPE": "U",
    "NORAD_CAT_ID": 28474,
    "ELEMENT_SET_NO": 999,
    "REV_AT_EPOCH": 11596,
    "BSTAR": 0,
    "MEAN_MOTION_DOT": -5.7e-7,
    "MEAN_MOTION_DDOT": 0
},{
    "OBJECT_NAME": "GPS BIIRM-1 (PRN 17)",
    "OBJECT_ID": "2005-038A",
    "EPOCH": "2020-08-30T09:22:44.565312",
    "MEAN_MOTION": 2.00555459,
    "ECCENTRICITY": 0.0136121,
    "INCLINATION": 56.3617,
    "RA_OF_ASC_NODE": 357.2497,
    "ARG_OF_PERICENTER": 266.137,
    "MEAN_ANOMALY": 89.4411,
    "EPHEMERIS_TYPE": 0,
    "CLASSIFICATION_TYPE": "U",
    "NORAD_CAT_ID": 28874,
    "ELEMENT_SET_NO": 999,
    "REV_AT_EPOCH": 10937,
    "BSTAR": 0,
    "MEAN_MOTION_DOT": -1.1e-6,
    "MEAN_MOTION_DDOT": 0
},{
    "OBJECT_NAME": "GPS BIIRM-2 (PRN 31)",
    "OBJECT_ID": "2006-042A",
    "EPOCH": "2020-08-29T12:04:07.992192",
    "MEAN_MOTION": 2.00567008,
    "ECCENTRICITY": 0.0096055,
    "INCLINATION": 54.8442,
    "RA_OF_ASC_NODE": 235.458,
    "ARG_OF_PERICENTER": 7.3193,
    "MEAN_ANOMALY": 352.3404,
    "EPHEMERIS_TYPE": 0,
    "CLASSIFICATION_TYPE": "U",
    "NORAD_CAT_ID": 29486,
    "ELEMENT_SET_NO": 999,
    "REV_AT_EPOCH": 10206,
    "BSTAR": 0,
    "MEAN_MOTION_DOT": 4.1e-7,
    "MEAN_MOTION_DDOT": 0
},{
    "OBJECT_NAME": "GPS BIIRM-3 (PRN 12)",
    "OBJECT_ID": "2006-052A",
    "EPOCH": "2020-08-30T10:48:46.459008",
    "MEAN_MOTION": 2.00567767,
    "ECCENTRICITY": 0.0076215,
    "INCLINATION": 55.9828,
    "RA_OF_ASC_NODE": 297.9617,
    "ARG_OF_PERICENTER": 65.9265,
    "MEAN_ANOMALY": 294.9437,
    "EPHEMERIS_TYPE": 0,
    "CLASSIFICATION_TYPE": "U",
    "NORAD_CAT_ID": 29601,
    "ELEMENT_SET_NO": 999,
    "REV_AT_EPOCH": 10100,
    "BSTAR": 0,
    "MEAN_MOTION_DOT": -1.4e-7,
    "MEAN_MOTION_DDOT": 0
},{
    "OBJECT_NAME": "GPS BIIRM-4 (PRN 15)",
    "OBJECT_ID": "2007-047A",
    "EPOCH": "2020-08-27T06:22:09.286464",
    "MEAN_MOTION": 2.00555372,
    "ECCENTRICITY": 0.0124839,
    "INCLINATION": 53.195,
    "RA_OF_ASC_NODE": 167.8578,
    "ARG_OF_PERICENTER": 51.4675,
    "MEAN_ANOMALY": 309.637,
    "EPHEMERIS_TYPE": 0,
    "CLASSIFICATION_TYPE": "U",
    "NORAD_CAT_ID": 32260,
    "ELEMENT_SET_NO": 999,
    "REV_AT_EPOCH": 9431,
    "BSTAR": 0,
    "MEAN_MOTION_DOT": -3.1e-7,
    "MEAN_MOTION_DDOT": 0
},{
    "OBJECT_NAME": "GPS BIIRM-5 (PRN 29)",
    "OBJECT_ID": "2007-062A",
    "EPOCH": "2020-08-29T13:55:56.184096",
    "MEAN_MOTION": 2.00554287,
    "ECCENTRICITY": 0.0014348,
    "INCLINATION": 56.4599,
    "RA_OF_ASC_NODE": 357.9644,
    "ARG_OF_PERICENTER": 130.8696,
    "MEAN_ANOMALY": 232.2114,
    "EPHEMERIS_TYPE": 0,
    "CLASSIFICATION_TYPE": "U",
    "NORAD_CAT_ID": 32384,
    "ELEMENT_SET_NO": 999,
    "REV_AT_EPOCH": 9310,
    "BSTAR": 0,
    "MEAN_MOTION_DOT": -1.1e-6,
    "MEAN_MOTION_DDOT": 0
},{
    "OBJECT_NAME": "GPS BIIRM-6 (PRN 07)",
    "OBJECT_ID": "2008-012A",
    "EPOCH": "2020-08-29T04:15:36.145152",
    "MEAN_MOTION": 2.00566582,
    "ECCENTRICITY": 0.0143659,
    "INCLINATION": 54.592,
    "RA_OF_ASC_NODE": 234.5576,
    "ARG_OF_PERICENTER": 224.9042,
    "MEAN_ANOMALY": 133.9303,
    "EPHEMERIS_TYPE": 0,
    "CLASSIFICATION_TYPE": "U",
    "NORAD_CAT_ID": 32711,
    "ELEMENT_SET_NO": 999,
    "REV_AT_EPOCH": 9127,
    "BSTAR": 0,
    "MEAN_MOTION_DOT": 4.4e-7,
    "MEAN_MOTION_DDOT": 0
},{
    "OBJECT_NAME": "GPS BIIRM-8 (PRN 05)",
    "OBJECT_ID": "2009-043A",
    "EPOCH": "2020-08-30T09:13:16.620096",
    "MEAN_MOTION": 2.00557554,
    "ECCENTRICITY": 0.0059166,
    "INCLINATION": 54.6299,
    "RA_OF_ASC_NODE": 112.0409,
    "ARG_OF_PERICENTER": 47.6201,
    "MEAN_ANOMALY": 134.7253,
    "EPHEMERIS_TYPE": 0,
    "CLASSIFICATION_TYPE": "U",
    "NORAD_CAT_ID": 35752,
    "ELEMENT_SET_NO": 999,
    "REV_AT_EPOCH": 8088,
    "BSTAR": 0,
    "MEAN_MOTION_DOT": -2.2e-7,
    "MEAN_MOTION_DDOT": 0
},{
    "OBJECT_NAME": "GPS BIIF-1  (PRN 25)",
    "OBJECT_ID": "2010-022A",
    "EPOCH": "2020-08-30T13:59:54.947904",
    "MEAN_MOTION": 2.00555446,
    "ECCENTRICITY": 0.0089003,
    "INCLINATION": 55.2569,
    "RA_OF_ASC_NODE": 293.9387,
    "ARG_OF_PERICENTER": 52.7501,
    "MEAN_ANOMALY": 17.0588,
    "EPHEMERIS_TYPE": 0,
    "CLASSIFICATION_TYPE": "U",
    "NORAD_CAT_ID": 36585,
    "ELEMENT_SET_NO": 999,
    "REV_AT_EPOCH": 7514,
    "BSTAR": 0,
    "MEAN_MOTION_DOT": -8.0e-8,
    "MEAN_MOTION_DDOT": 0
},{
    "OBJECT_NAME": "GPS BIIF-2  (PRN 01)",
    "OBJECT_ID": "2011-036A",
    "EPOCH": "2020-08-28T20:47:22.055136",
    "MEAN_MOTION": 2.00560677,
    "ECCENTRICITY": 0.009917,
    "INCLINATION": 56.2259,
    "RA_OF_ASC_NODE": 54.425,
    "ARG_OF_PERICENTER": 46.2187,
    "MEAN_ANOMALY": 311.1743,
    "EPHEMERIS_TYPE": 0,
    "CLASSIFICATION_TYPE": "U",
    "NORAD_CAT_ID": 37753,
    "ELEMENT_SET_NO": 999,
    "REV_AT_EPOCH": 6678,
    "BSTAR": 0,
    "MEAN_MOTION_DOT": -4.3e-7,
    "MEAN_MOTION_DDOT": 0
},{
    "OBJECT_NAME": "GPS BIIF-3  (PRN 24)",
    "OBJECT_ID": "2012-053A",
    "EPOCH": "2020-08-28T08:39:12.055680",
    "MEAN_MOTION": 2.00566922,
    "ECCENTRICITY": 0.0098331,
    "INCLINATION": 53.6358,
    "RA_OF_ASC_NODE": 230.3677,
    "ARG_OF_PERICENTER": 37.4593,
    "MEAN_ANOMALY": 323.2232,
    "EPHEMERIS_TYPE": 0,
    "CLASSIFICATION_TYPE": "U",
    "NORAD_CAT_ID": 38833,
    "ELEMENT_SET_NO": 999,
    "REV_AT_EPOCH": 5783,
    "BSTAR": 0,
    "MEAN_MOTION_DOT": 4.9e-7,
    "MEAN_MOTION_DDOT": 0
}]
